{"type": "FeatureCollection", "features": [ {"type": "Feature", "properties": {"norad_id": 38801, "name": "FENGYUN 1C DEB", "group": "fengyun-1c-debris", "lat": 18.37176578454618, "lon": -137.20887452172636, "alt_km": 1058.4009529549967, "timestamp": "2025-12-15T11:38:37.443457+00:00", "meta": {"OBJECT_NAME": "FENGYUN 1C DEB", "OBJECT_ID": "1999-025EUR", "EPOCH": "2025-12-14T23:38:20.156064", "MEAN_MOTION": 14.2482334, "ECCENTRICITY": 0.03468339, "INCLINATION": 98.3742, "RA_OF_ASC_NODE": 39.5088, "ARG_OF_PERICENTER": 345.3815, "MEAN_ANOMALY": 131.5103, "EPHEMERIS_TYPE": 0, "CLASSIFICATION_TYPE": "U", "NORAD_CAT_ID": 38801, "ELEMENT_SET_NO": 999, "REV_AT_EPOCH": 64392, "BSTAR": 0.00040763026, "MEAN_MOTION_DOT": 1.732e-05, "MEAN_MOTION_DDOT": 0}, "tle": {"line1": "1 38801U 99025EUR 25348.98495551  .00001732  00000+0  40763-3 0  9998", "line2": "2 38801  98.3742  39.5088 0346833 345.3815 131.5103 14.24823340643923"}}, "geometry": {"type": "Point", "coordinates": [-137.20887452172636, 18.37176578454618]}}, {"type": "Feature", "properties": {"norad_id": 38803, "name": "FENGYUN 1C DEB", "group": "fengyun-1c-debris", "lat": 18.78438573989313, "lon": -9.705144435731563, "alt_km": 767.438819943025, "timestamp": "2025-12-15T11:38:37.443468+00:00", "meta": {"OBJECT_NAME": "FENGYUN 1C DEB", "OBJECT_ID": "1999-025EUT", "EPOCH": "2025-12-11T23:13:14.211840", "MEAN_MOTION": 14.23655987, "ECCENTRICITY": 0.006424, "INCLINATION": 99.1403, "RA_OF_ASC_NODE": 349.7804, "ARG_OF_PERICENTER": 38.5359, "MEAN_ANOMALY": 322.0379, "EPHEMERIS_TYPE": 0, "CLASSIFICATION_TYPE": "U", "NORAD_CAT_ID": 38803, "ELEMENT_SET_NO": 999, "REV_AT_EPOCH": 60201, "BSTAR": 0.003165, "MEAN_MOTION_DOT": 7.334e-05, "MEAN_MOTION_DDOT": 0}, "tle": {"line1": "1 38803U 99025EUT 25345.96752560  .00007334  00000+0  31650-2 0  9999", "line2": "2 38803  99.1403 349.7804 0064240  38.5359 322.0379 14.23655987602019"}}, "geometry": {"type": "Point", "coordinates": [-9.705144435731563, 18.78438573989313]}}, {"type": "Feature", "properties": {"norad_id": 38809, "name": "FENGYUN 1C DEB", "group": "fengyun-1c-debris", "lat": -80.05361652515833, "lon": 59.11334552387216, "alt_km": 723.6253819184185, "timestamp": "2025-12-15T11:38:37.443478+00:00", "meta": {"OBJECT_NAME": "FENGYUN 1C DEB", "OBJECT_ID": "1999-025EUZ", "EPOCH": "2025-12-14T05:32:58.974432", "MEAN_MOTION": 14.18178007, "ECCENTRICITY": 0.02226559, "INCLINATION": 98.5905, "RA_OF_ASC_NODE": 358.3567, "ARG_OF_PERICENTER": 323.6891, "MEAN_ANOMALY": 34.9348, "EPHEMERIS_TYPE": 0, "CLASSIFICATION_TYPE": "U", "NORAD_CAT_ID": 38809, "ELEMENT_SET_NO": 999, "REV_AT_EPOCH": 69227, "BSTAR": 0.00071470667, "MEAN_MOTION_DOT": 1.83e-05, "MEAN_MOTION_DDOT": 0}, "tle": {"line1": "1 38809U 99025EUZ 25348.23123813  .00001830  00000+0  71471-3 0  9992", "line2": "2 38809  98.5905 358.3567 0222655 323.6891  34.9348 14.18178007692271"}}, "geometry": {"type": "Point", "coordinates": [59.11334552387216, -80.05361652515833]}}, {"type": "Feature", "properties": {"norad_id": 38813, "name": "FENGYUN 1C DEB", "group": "fengyun-1c-debris", "lat": 38.71641264766988, "lon": -20.784475431631687, "alt_km": 819.9570824934945, "timestamp": "2025-12-15T11:38:37.443488+00:00", "meta": {"OBJECT_NAME": "FENGYUN 1C DEB", "OBJECT_ID": "1999-025EVD", "EPOCH": "2025-12-13T18:52:41.433888", "MEAN_MOTION": 14.20167427, "ECCENTRICITY": 0.00065107, "INCLINATION": 99.3459, "RA_OF_ASC_NODE": 345.0085, "ARG_OF_PERICENTER": 111.2502, "MEAN_ANOMALY": 248.9369, "EPHEMERIS_TYPE": 0, "CLASSIFICATION_TYPE": "U", "NORAD_CAT_ID": 38813, "ELEMENT_SET_NO": 999, "REV_AT_EPOCH": 48265, "BSTAR": 0.00071362745, "MEAN_MOTION_DOT": 1.474e-05, "MEAN_MOTION_DDOT": 0}, "tle": {"line1": "1 38813U 99025EVD 25347.78659067  .00001474  00000+0  71363-3 0  9995", "line2": "2 38813  99.3459 345.0085 0006510 111.2502 248.9369 14.20167427482653"}}, "geometry": {"type": "Point", "coordinates": [-20.784475431631687, 38.71641264766988]}}, {"type": "Feature", "properties": {"norad_id": 38817, "name": "FENGYUN 1C DEB", "group": "fengyun-1c-debris", "lat": 38.86097530462289, "lon": 46.498691743436986, "alt_km": 1084.768500700803, "timestamp": "2025-12-15T11:38:37.443498+00:00", "meta": {"OBJECT_NAME": "FENGYUN 1C DEB", "OBJECT_ID": "1999-025EVH", "EPOCH": "2025-12-13T20:04:14.011392", "MEAN_MOTION": 13.5769547, "ECCENTRICITY": 0.02914797, "INCLINATION": 98.6001, "RA_OF_ASC_NODE": 218.0492, "ARG_OF_PERICENTER": 41.5305, "MEAN_ANOMALY": 320.759, "EPHEMERIS_TYPE": 0, "CLASSIFICATION_TYPE": "U", "NORAD_CAT_ID": 38817, "ELEMENT_SET_NO": 999, "REV_AT_EPOCH": 65849, "BSTAR": 0.002535334, "MEAN_MOTION_DOT": 2.368e-05, "MEAN_MOTION_DDOT": 0}, "tle": {"line1": "1 38817U 99025EVH 25347.83627328  .00002368  00000+0  25353-2 0  9990", "line2": "2 38817  98.6001 218.0492 0291479  41.5305 320.7590 13.57695470658494"}}, "geometry": {"type": "Point", "coordinates": [46.498691743436986, 38.86097530462289]}}, {"type": "Feature", "properties": {"norad_id": 38818, "name": "FENGYUN 1C DEB", "group": "fengyun-1c-debris", "lat": 33.210463590367134, "lon": -128.8247392210011, "alt_km": 721.4925050581442, "timestamp": "2025-12-15T11:38:37.443519+00:00", "meta": {"OBJECT_NAME": "FENGYUN 1C DEB", "OBJECT_ID": "1999-025EVJ", "EPOCH": "2025-12-14T22:27:08.695584", "MEAN_MOTION": 14.39493128, "ECCENTRICITY": 0.00885268, "INCLINATION": 98.3002, "RA_OF_ASC_NODE": 45.159, "ARG_OF_PERICENTER": 92.9316, "MEAN_ANOMALY": 85.8685, "EPHEMERIS_TYPE": 0, "CLASSIFICATION_TYPE": "U", "NORAD_CAT_ID": 38818, "ELEMENT_SET_NO": 999, "REV_AT_EPOCH": 67279, "BSTAR": 0.00036465317, "MEAN_MOTION_DOT": 1.147e-05, "MEAN_MOTION_DDOT": 0}, "tle": {"line1": "1 38818U 99025EVJ 25348.93551731  .00001147  00000+0  36465-3 0  9998", "line2": "2 38818  98.3002  45.1590 0088526  92.9316  85.8685 14.39493128672790"}}, "geometry": {"type": "Point", "coordinates": [-128.8247392210011, 33.210463590367134]}}, {"type": "Feature", "properties": {"norad_id": 38819, "name": "FENGYUN 1C DEB", "group": "fengyun-1c-debris", "lat": -81.33045100216094, "lon": 78.18955538365775, "alt_km": 826.9173077226224, "timestamp": "2025-12-15T11:38:37.443530+00:00", "meta": {"OBJECT_NAME": "FENGYUN 1C DEB", "OBJECT_ID": "1999-025EVK", "EPOCH": "2025-12-13T06:01:49.358208", "MEAN_MOTION": 14.1937346, "ECCENTRICITY": 0.00797082, "INCLINATION": 98.6179, "RA_OF_ASC_NODE": 340.0506, "ARG_OF_PERICENTER": 192.9629, "MEAN_ANOMALY": 187.0477, "EPHEMERIS_TYPE": 0, "CLASSIFICATION_TYPE": "U", "NORAD_CAT_ID": 38819, "ELEMENT_SET_NO": 999, "REV_AT_EPOCH": 63485, "BSTAR": 0.00062389681, "MEAN_MOTION_DOT": 1.311e-05, "MEAN_MOTION_DDOT": 0}, "tle": {"line1": "1 38819U 99025EVK 25347.25126572  .00001311  00000+0  62390-3 0  9993", "line2": "2 38819  98.6179 340.0506 0079708 192.9629 187.0477 14.19373460634856"}}, "geometry": {"type": "Point", "coordinates": [78.18955538365775, -81.33045100216094]}}, {"type": "Feature", "properties": {"norad_id": 38824, "name": "FENGYUN 1C DEB", "group": "fengyun-1c-debris", "lat": -63.87410622245832, "lon": -76.34461394196981, "alt_km": 809.1630375383465, "timestamp": "2025-12-15T11:38:37.443540+00:00", "meta": {"OBJECT_NAME": "FENGYUN 1C DEB", "OBJECT_ID": "1999-025EVQ", "EPOCH": "2025-11-20T14:24:21.461760", "MEAN_MOTION": 14.13875773, "ECCENTRICITY": 0.00960414, "INCLINATION": 99.2955, "RA_OF_ASC_NODE": 97.2934, "ARG_OF_PERICENTER": 263.2679, "MEAN_ANOMALY": 95.7556, "EPHEMERIS_TYPE": 0, "CLASSIFICATION_TYPE": "U", "NORAD_CAT_ID": 38824, "ELEMENT_SET_NO": 999, "REV_AT_EPOCH": 68824, "BSTAR": 0.0027703315, "MEAN_MOTION_DOT": 5.443e-05, "MEAN_MOTION_DDOT": 0}, "tle": {"line1": "1 38824U 99025EVQ 25324.60024840  .00005443  00000+0  27703-2 0  9996", "line2": "2 38824  99.2955  97.2934 0096041 263.2679  95.7556 14.13875773688246"}}, "geometry": {"type": "Point", "coordinates": [-76.34461394196981, -63.87410622245832]}}, {"type": "Feature", "properties": {"norad_id": 38827, "name": "FENGYUN 1C DEB", "group": "fengyun-1c-debris", "lat": -18.77590345145561, "lon": 15.20232078732417, "alt_km": 661.3531809092465, "timestamp": "2025-12-15T11:38:37.443551+00:00", "meta": {"OBJECT_NAME": "FENGYUN 1C DEB", "OBJECT_ID": "1999-025EVT", "EPOCH": "2025-12-13T07:46:35.995872", "MEAN_MOTION": 14.3286071, "ECCENTRICITY": 0.02162982, "INCLINATION": 98.3875, "RA_OF_ASC_NODE": 10.2333, "ARG_OF_PERICENTER": 311.1324, "MEAN_ANOMALY": 47.1367, "EPHEMERIS_TYPE": 0, "CLASSIFICATION_TYPE": "U", "NORAD_CAT_ID": 38827, "ELEMENT_SET_NO": 999, "REV_AT_EPOCH": 61068, "BSTAR": 0.0014881637, "MEAN_MOTION_DOT": 5.222e-05, "MEAN_MOTION_DDOT": 0}, "tle": {"line1": "1 38827U 99025EVT 25347.32402773  .00005222  00000+0  14882-2 0  9997", "line2": "2 38827  98.3875  10.2333 0216298 311.1324  47.1367 14.32860710610686"}}, "geometry": {"type": "Point", "coordinates": [15.20232078732417, -18.77590345145561]}}, {"type": "Feature", "properties": {"norad_id": 38829, "name": "FENGYUN 1C DEB", "group": "fengyun-1c-debris", "lat": 45.7394484001231, "lon": -3.7151812201362078, "alt_km": 830.6770682480992, "timestamp": "2025-12-15T11:38:37.443562+00:00", "meta": {"OBJECT_NAME": "FENGYUN 1C DEB", "OBJECT_ID": "1999-025EVV", "EPOCH": "2025-12-12T18:40:24.452256", "MEAN_MOTION": 14.09216687, "ECCENTRICITY": 0.0041168, "INCLINATION": 98.7498, "RA_OF_ASC_NODE": 2.7487, "ARG_OF_PERICENTER": 30.5355, "MEAN_ANOMALY": 329.82, "EPHEMERIS_TYPE": 0, "CLASSIFICATION_TYPE": "U", "NORAD_CAT_ID": 38829, "ELEMENT_SET_NO": 999, "REV_AT_EPOCH": 64133, "BSTAR": 0.00086306808, "MEAN_MOTION_DOT": 1.47e-05, "MEAN_MOTION_DDOT": 0}, "tle": {"line1": "1 38829U 99025EVV 25346.77806079  .00001470  00000+0  86307-3 0  9997", "line2": "2 38829  98.7498   2.7487 0041168  30.5355 329.8200 14.09216687641331"}}, "geometry": {"type": "Point", "coordinates": [-3.7151812201362078, 45.7394484001231]}}]}